OBJECT_NAME,OBJECT_ID,EPOCH,MEAN_MOTION,ECCENTRICITY,INCLINATION,RA_OF_ASC_NODE,ARG_OF_PERICENTER,MEAN_ANOMALY,EPHEMERIS_TYPE,CLASSIFICATION_TYPE,NORAD_CAT_ID,ELEMENT_SET_NO,REV_AT_EPOCH,BSTAR,MEAN_MOTION_DOT,MEAN_MOTION_DDOT
SWARM A,2013-067B,2026-06-25T03:43:59.560608,15.51093315,.0003131,87.3324,53.2807,96.7305,263.4312,0,U,39452,999,70748,.2025E-3,.11831E-3,0
SWARM C,2013-067C,2026-06-25T03:43:50.472192,15.51092281,.000311,87.3323,51.8618,96.8161,263.3454,0,U,39453,999,70744,.20503E-3,.11979E-3,0
BRITE-CA1 (TORONTO),2014-033L,2026-06-24T07:23:17.396736,14.72685913,.00772647,97.9746,304.1047,253.8059,105.4636,0,U,40020,999,64326,.10924783E-3,.675E-5,0
OCO 2,2014-035A,2026-06-25T02:54:26.222112,14.57117122,.0001511,98.2018,117.2933,83.7573,276.3797,0,U,40059,999,63720,.91202E-4,.366E-5,0
BRITE-PL2 (HEWELIUSZ),2014-049B,2026-06-24T04:50:49.659360,14.94617811,.00154332,97.9104,287.2561,87.1932,273.1054,0,U,40119,999,64249,.17421257E-3,.1831E-4,0
MMS 1,2015-011A,2026-06-25T06:00:02.000160,0.28357433,.8320471,72.2644,348.7162,167.5697,41.1225,0,U,40482,999,137,0,-.686E-5,0
MMS 2,2015-011B,2026-06-25T06:00:02.000160,0.28357246,.8323289,72.2682,348.7153,167.5730,41.1135,0,U,40483,999,137,0,-.686E-5,0
MMS 3,2015-011C,2026-06-25T06:00:02.000160,0.28357224,.8321664,72.2680,348.7270,167.5804,41.0874,0,U,40484,999,137,0,-.685E-5,0
MMS 4,2015-011D,2026-06-25T06:00:02.000160,0.28357440,.8321542,72.2643,348.7103,167.5902,41.0804,0,U,40485,999,137,0,-.685E-5,0
ASTROSAT,2015-052A,2026-06-24T23:05:55.839840,14.82519040,.000772,5.9975,99.3730,149.2791,210.7789,0,U,40930,999,58098,.99754E-4,.1491E-4,0
DAMPE,2015-078A,2026-06-25T03:26:17.561184,15.30802153,.0013501,97.4562,181.6494,52.6444,307.6024,0,U,41173,999,58576,.30135E-4,.821E-5,0
PISAT,2016-059B,2026-06-24T23:27:17.519040,14.68995329,.0029037,97.8179,176.0953,177.6353,182.4996,0,U,41784,999,52088,.14821E-3,.827E-5,0
HXMT (HUIYAN),2017-034A,2026-06-25T03:49:16.303872,15.18521096,.0031793,43.0127,138.6475,197.9472,162.0256,0,U,42758,999,49887,.20148E-3,.4045E-4,0
FLYING LAPTOP,2017-042G,2026-06-25T04:25:25.733568,15.01190382,.0019945,97.4723,331.4110,96.2531,264.0966,0,U,42831,999,48765,.19722E-3,.2482E-4,0
ZHANGHENG 1-01 (CSES-1),2018-015C,2026-06-25T03:58:54.027840,15.20902740,.0017286,97.6872,341.9826,236.5878,123.3704,0,U,43194,999,46585,.33678E-3,.7404E-4,0
SALSAT,2020-068K,2026-06-24T23:51:59.462208,15.29898993,.0007812,97.8853,179.5347,274.8629,85.1718,0,U,46495,999,31655,.27767E-3,.7962E-4,0
IXPE,2021-121A,2026-06-25T04:00:00.999072,15.10312541,.0006811,0.2296,257.7392,200.1775,58.8851,0,U,49954,999,587,.57874E-3,.10706E-3,0
SMILE,2026-109A,2026-06-07T09:11:54.544416,7.54049028,.3310191,69.9787,209.3069,288.5544,45.7342,0,U,69123,999,248,-.36778157E-3,-.41E-6,0
