SWARM A                 
1 39452U 13067B   26176.15555047  .00011831  00000+0  20250-3 0  9999
2 39452  87.3324  53.2807 0003131  96.7305 263.4312 15.51093315707485
SWARM C                 
1 39453U 13067C   26176.15544528  .00011979  00000+0  20503-3 0  9996
2 39453  87.3323  51.8618 0003110  96.8161 263.3454 15.51092281707440
BRITE-CA1 (TORONTO)     
1 40020U 14033L   26175.30784024  .00000675  00000+0  10925-3 0  9993
2 40020  97.9746 304.1047 0077264 253.8059 105.4636 14.72685913643269
OCO 2                   
1 40059U 14035A   26176.12113683  .00000366  00000+0  91202-4 0  9990
2 40059  98.2018 117.2933 0001511  83.7573 276.3797 14.57117122637205
BRITE-PL2 (HEWELIUSZ)   
1 40119U 14049B   26175.20196365  .00001831  00000+0  17421-3 0  9996
2 40119  97.9104 287.2561 0015433  87.1932 273.1054 14.94617811642493
MMS 1                   
1 40482U 15011A   26176.25002315 -.00000686  00000+0  00000+0 0  9995
2 40482  72.2644 348.7162 8320471 167.5697  41.1225  0.28357433  1373
MMS 2                   
1 40483U 15011B   26176.25002315 -.00000686  00000+0  00000+0 0  9996
2 40483  72.2682 348.7153 8323289 167.5730  41.1135  0.28357246  1376
MMS 3                   
1 40484U 15011C   26176.25002315 -.00000685  00000+0  00000+0 0  9996
2 40484  72.2680 348.7270 8321664 167.5804  41.0874  0.28357224  1377
MMS 4                   
1 40485U 15011D   26176.25002315 -.00000685  00000+0  00000+0 0  9997
2 40485  72.2643 348.7103 8321542 167.5902  41.0804  0.28357440  1379
ASTROSAT                
1 40930U 15052A   26175.96245185  .00001491  00000+0  99754-4 0  9992
2 40930   5.9975  99.3730 0007720 149.2791 210.7789 14.82519040580981
DAMPE                   
1 41173U 15078A   26176.14325881  .00000821  00000+0  30135-4 0  9997
2 41173  97.4562 181.6494 0013501  52.6444 307.6024 15.30802153585760
PISAT                   
1 41784U 16059B   26175.97728610  .00000827  00000+0  14821-3 0  9991
2 41784  97.8179 176.0953 0029037 177.6353 182.4996 14.68995329520889
HXMT (HUIYAN)           
1 42758U 17034A   26176.15921648  .00004045  00000+0  20148-3 0  9999
2 42758  43.0127 138.6475 0031793 197.9472 162.0256 15.18521096498877
FLYING LAPTOP           
1 42831U 17042G   26176.18432562  .00002482  00000+0  19722-3 0  9994
2 42831  97.4723 331.4110 0019945  96.2531 264.0966 15.01190382487652
ZHANGHENG 1-01 (CSES-1) 
1 43194U 18015C   26176.16590310  .00007404  00000+0  33678-3 0  9997
2 43194  97.6872 341.9826 0017286 236.5878 123.3704 15.20902740465856
SALSAT                  
1 46495U 20068K   26175.99443822  .00007962  00000+0  27767-3 0  9991
2 46495  97.8853 179.5347 0007812 274.8629  85.1718 15.29898993316555
IXPE                    
1 49954U 21121A   26176.16667823  .00010706  00000+0  57874-3 0  9996
2 49954   0.2296 257.7392 0006811 200.1775  58.8851 15.10312541  5873
SMILE                   
1 69123U 26109A   26158.38327019 -.00000041  00000+0 -36778-3 0  9994
2 69123  69.9787 209.3069 3310191 288.5544  45.7342  7.54049028  2480
